{
    "links": {
        "self": "http://www.neowsapp.com/rest/v1/neo/3825232?api_key=iIulBulltgU6a56xZRHN4H3l9WmuAYTsLGpBGhQ2"
    },
    "id": "3825232",
    "neo_reference_id": "3825232",
    "name": "(2018 LN5)",
    "designation": "2018 LN5",
    "nasa_jpl_url": "http://ssd.jpl.nasa.gov/sbdb.cgi?sstr=3825232",
    "absolute_magnitude_h": 24.5,
    "estimated_diameter": {
        "kilometers": {
            "estimated_diameter_min": 0.0334622374,
            "estimated_diameter_max": 0.0748238376
        },
        "meters": {
            "estimated_diameter_min": 33.4622374455,
            "estimated_diameter_max": 74.8238376074
        },
        "miles": {
            "estimated_diameter_min": 0.0207924639,
            "estimated_diameter_max": 0.0464933628
        },
        "feet": {
            "estimated_diameter_min": 109.7842471007,
            "estimated_diameter_max": 245.4850393757
        }
    },
    "is_potentially_hazardous_asteroid": false,
    "close_approach_data": [
        {
            "close_approach_date": "2000-10-27",
            "close_approach_date_full": "2000-Oct-27 04:27",
            "epoch_date_close_approach": 972620820000,
            "relative_velocity": {
                "kilometers_per_second": "4.6389156658",
                "kilometers_per_hour": "16700.0963967977",
                "miles_per_hour": "10376.7904527769"
            },
            "miss_distance": {
                "astronomical": "1.7758201111",
                "lunar": "690.7940232179",
                "kilometers": "265658906.123723357",
                "miles": "165072789.7383100466"
            },
            "orbiting_body": "Juptr"
        },
        {
            "close_approach_date": "2018-06-20",
            "close_approach_date_full": "2018-Jun-20 01:23",
            "epoch_date_close_approach": 1529457780000,
            "relative_velocity": {
                "kilometers_per_second": "6.8915800836",
                "kilometers_per_hour": "24809.6883010614",
                "miles_per_hour": "15415.7754890679"
            },
            "miss_distance": {
                "astronomical": "0.0945051241",
                "lunar": "36.7624932749",
                "kilometers": "14137765.269445667",
                "miles": "8784799.9818455246"
            },
            "orbiting_body": "Earth"
        }
    ],
    "orbital_data": {
        "orbit_id": "5",
        "orbit_determination_date": "2018-08-09 07:26:36",
        "first_observation_date": "2018-06-04",
        "last_observation_date": "2018-07-19",
        "data_arc_in_days": 45,
        "observations_used": 20,
        "orbit_uncertainty": "6",
        "minimum_orbit_intersection": ".092906",
        "jupiter_tisserand_invariant": "3.249",
        "epoch_osculation": "2459000.5",
        "eccentricity": ".5514531751133167",
        "semi_major_axis": "2.471217622070765",
        "inclination": "5.883389971578273",
        "ascending_node_longitude": "87.67353219972084",
        "orbital_period": "1418.942886742155",
        "perihelion_distance": "1.108456817983861",
        "perihelion_argument": "176.1219452077507",
        "aphelion_distance": "3.833978426157668",
        "perihelion_time": "2459705.155357635015",
        "mean_anomaly": "181.221889112791",
        "mean_motion": ".2537100001442257",
        "equinox": "J2000",
        "orbit_class": {
            "orbit_class_type": "AMO",
            "orbit_class_description": "Near-Earth asteroid orbits similar to that of 1221 Amor",
            "orbit_class_range": "1.017 AU < q (perihelion) < 1.3 AU"
        }
    },
    "is_sentry_object": false
}